{"version": 0.6, "generator": "Overpass API 0.7.56.3 eb200aeb", "osm3s": {"timestamp_osm_base": "2020-05-28T22:33:03Z", "copyright": "The data included in this document is from www.openstreetmap.org. The data is made available under ODbL."}, "elements": [{"type": "node", "id": 626903399, "lat": 45.4344767, "lon": 12.3235246, "tags": {"addr:housenumber": "2967", "addr:postcode": "30123", "addr:street": "Campo Santa Margherita", "amenity": "cafe", "cuisine": "regional", "name": "Caff\u00e9 Rosso", "toilets:wheelchair": "no", "wheelchair": "yes"}}, {"type": "node", "id": 639811824, "lat": 45.437145, "lon": 12.3244446, "tags": {"amenity": "drinking_water"}}, {"type": "node", "id": 676820124, "lat": 45.4355442, "lon": 12.3455686, "tags": {"amenity": "cafe", "name": "Da Aurelio"}}, {"type": "node", "id": 676820125, "lat": 45.4356093, "lon": 12.3457605, "tags": {"addr:housenumber": "3306", "addr:neighbourhood": "Castello", "addr:place": "Castello", "amenity": "cafe", "name": "Bar pasticceria Chiusso"}}, {"type": "node", "id": 895802286, "lat": 45.4569046, "lon": 12.3572469, "tags": {"amenity": "cafe", "name": "Bar Da Ice"}}, {"type": "node", "id": 895803334, "lat": 45.454771, "lon": 12.3568649, "tags": {"amenity": "cafe"}}, {"type": "node", "id": 1024881830, "lat": 45.4260258, "lon": 12.3375055, "tags": {"amenity": "drinking_water"}}, {"type": "node", "id": 1024900285, "lat": 45.4257527, "lon": 12.3293902, "tags": {"amenity": "drinking_water"}}, {"type": "node", "id": 1202810066, "lat": 45.4576906, "lon": 12.3575725, "tags": {"amenity": "cafe", "name": "Al Canton"}}, {"type": "node", "id": 1303944111, "lat": 45.4244312, "lon": 12.3777492, "tags": {"amenity": "drinking_water"}}, {"type": "node", "id": 1303944192, "lat": 45.4280252, "lon": 12.3802942, "tags": {"amenity": "drinking_water"}}, {"type": "node", "id": 1326454795, "lat": 45.4347562, "lon": 12.3496336, "tags": {"addr:housenumber": "2408", "amenity": "cafe", "name": "Bar Arsenale"}}, {"type": "node", "id": 1346173744, "lat": 45.4342406, "lon": 12.3256196, "tags": {"amenity": "drinking_water"}}, {"type": "node", "id": 1346173747, "lat": 45.4349509, "lon": 12.3259045, "tags": {"amenity": "drinking_water"}}, {"type": "node", "id": 1403238685, "lat": 45.4407687, "lon": 12.3349929, "tags": {"FIXME": "name;adresse pr\u00e9cise", "amenity": "cafe", "cuisine": "italian", "name": "Santa Sofia", "name:it": "S. Sofia", "wheelchair": "no"}}, {"type": "node", "id": 1426023636, "lat": 45.4311026, "lon": 12.3236253, "tags": {"amenity": "drinking_water"}}, {"type": "node", "id": 1459907345, "lat": 45.4256256, "lon": 12.3787586, "tags": {"amenity": "cafe"}}, {"type": "node", "id": 1504407646, "lat": 45.4253435, "lon": 12.3322829, "tags": {"amenity": "drinking_water", "description": "Beside Chiesa del Santissimo Redentore. Venice.", "image": "http://findafountain.org/system/900/original/italy-venice-chiesa-del-santissimo-redentore-outdoor-fountain.jpg", "maintenance": "ok", "name": "Chiesa del Santissimo Redentore", "source": "osmsync:findafountain", "source:pkey": "1194"}}, {"type": "node", "id": 1504407864, "lat": 45.4320999, "lon": 12.3254217, "tags": {"amenity": "drinking_water", "name": "Ponte del Squero", "source": "wetap.org", "source:pkey": "1195", "wetap:credit": "ivanve1", "wetap:photo": "http://mdcwetap.atwebpages.com/jpg.php?i=ivanve11376029526916.jpg", "wetap:status": "working"}}, {"type": "node", "id": 1522313181, "lat": 45.439387, "lon": 12.3211752, "tags": {"addr:housenumber": "555a", "addr:neighbourhood": "Santa Croce", "amenity": "cafe", "name": "Bar Mirabar"}}, {"type": "node", "id": 1522367659, "lat": 45.4437012, "lon": 12.3274758, "tags": {"addr:housenumber": "1615", "addr:neighbourhood": "Cannaregio", "addr:place": "Cannaregio", "amenity": "cafe", "wheelchair": "limited"}}, {"type": "node", "id": 1608493659, "lat": 45.4358318, "lon": 12.345116, "tags": {"amenity": "drinking_water"}}, {"type": "node", "id": 1664165995, "lat": 45.4417398, "lon": 12.3372691, "tags": {"amenity": "drinking_water"}}, {"type": "node", "id": 1781910003, "lat": 45.452294, "lon": 12.3504261, "tags": {"amenity": "drinking_water"}}, {"type": "node", "id": 1813895953, "lat": 45.4390212, "lon": 12.3413595, "tags": {"addr:housenumber": "6810", "addr:neighbourhood": "Castello", "addr:place": "Castello", "addr:postcode": "30122", "amenity": "cafe", "cuisine": "coffee_shop", "name": "Snack Bar Colleoni", "wifi": "yes"}}, {"type": "node", "id": 1813895974, "lat": 45.4389335, "lon": 12.3417406, "tags": {"addr:housenumber": "6780", "addr:neighbourhood": "Castello", "addr:place": "Castello", "addr:postcode": "30122", "amenity": "cafe", "cuisine": "coffee_shop", "name": "Rosa Salva"}}, {"type": "node", "id": 1814311460, "lat": 45.4164622, "lon": 12.3709343, "tags": {"amenity": "cafe", "name": "Maleti"}}, {"type": "node", "id": 1831361320, "lat": 45.4531227, "lon": 12.3537459, "tags": {"amenity": "drinking_water"}}, {"type": "node", "id": 1855459557, "lat": 45.4323164, "lon": 12.3545962, "tags": {"amenity": "drinking_water"}}, {"type": "node", "id": 1879269046, "lat": 45.4337777, "lon": 12.330622, "tags": {"amenity": "cafe", "name": "All'Angolo"}}, {"type": "node", "id": 1879269049, "lat": 45.4339958, "lon": 12.3310084, "tags": {"addr:housenumber": "3528", "amenity": "cafe", "name": "Bar Spritz", "ref:vatin": "IT02427180274"}}, {"type": "node", "id": 1879269054, "lat": 45.4333596, "lon": 12.3308796, "tags": {"amenity": "cafe"}}, {"type": "node", "id": 1879269070, "lat": 45.4330353, "lon": 12.330709, "tags": {"addr:street": "Campo Santo Stefano", "amenity": "cafe", "name": "A Peccafico", "opening_hours": "Mo-Su,PH 12:00-15:00,19:00-23:00", "phone": "+39 0415274879"}}, {"type": "node", "id": 1879269073, "lat": 45.4325105, "lon": 12.3297216, "tags": {"amenity": "cafe"}}, {"type": "node", "id": 1879269078, "lat": 45.4332304, "lon": 12.3308049, "tags": {"amenity": "cafe"}}, {"type": "node", "id": 1906034623, "lat": 45.453543, "lon": 12.3522599, "tags": {"amenity": "drinking_water"}}, {"type": "node", "id": 1927219481, "lat": 45.4413689, "lon": 12.3214046, "tags": {"addr:housenumber": "44", "addr:neighbourhood": "Cannaregio", "addr:place": "Cannaregio", "amenity": "cafe", "name": "Relax & Caf\u00e8", "operator": "Maccario Giuseppe S.r.l.", "outdoor_seating": "terrace", "ref:vatin": "IT00765630082", "wheelchair": "yes"}}, {"type": "node", "id": 2090158872, "lat": 45.4360287, "lon": 12.3485329, "tags": {"addr:city": "Venezia", "addr:housenumber": "2613", "amenity": "cafe", "internet_access": "yes", "internet_access:fee": "no", "name": "Osteria ai do Pozzi", "operator": "Dae Fie SNC", "phone": "+39 041 52 07 141", "smoking": "separated", "source": "survey", "wheelchair": "yes"}}, {"type": "node", "id": 2097985427, "lat": 45.4424105, "lon": 12.3772199, "tags": {"amenity": "drinking_water"}}, {"type": "node", "id": 2164518066, "lat": 45.4307035, "lon": 12.3290894, "tags": {"amenity": "cafe", "name": "Gino's"}}, {"type": "node", "id": 2164520712, "lat": 45.4293172, "lon": 12.3274643, "tags": {"addr:city": "Venezia", "addr:housenumber": "794/795", "addr:place": "Dorsoduro", "addr:postcode": "30123", "amenity": "cafe", "name": "Laguna", "outdoor_seating": "yes", "phone": "+39 041 5283619", "website": "https://www.barlaguna.it/"}}, {"type": "node", "id": 2165495949, "lat": 45.4360299, "lon": 12.3279487, "tags": {"amenity": "cafe", "name": "Ciak", "wheelchair": "no"}}, {"type": "node", "id": 2165495953, "lat": 45.4359746, "lon": 12.3252787, "tags": {"amenity": "cafe", "name": "Caf\u00e8 Noir", "opening_hours": "Mo-Fr 11:00-02:00; Sa,Su 19:00-02:00", "wheelchair": "yes"}}, {"type": "node", "id": 2249980982, "lat": 45.432405, "lon": 12.3372585, "tags": {"addr:housenumber": "1323", "addr:postcode": "30124", "addr:street": "Calle Vallaresso", "amenity": "cafe", "email": "harrysbar@cipriani.com", "name": "Harry's Bar", "operator": "Arrigo Cipriani", "phone": "+39 (0) 41 528 5777", "website": "http://www.harrysbarvenezia.com/", "wikidata": "Q1586965", "wikipedia": "it:Harry's Bar"}}, {"type": "node", "id": 2250019924, "lat": 45.4385835, "lon": 12.32721, "tags": {"addr:housenumber": "3805", "addr:street": "Dorsoduro", "amenity": "cafe", "cuisine": "regional", "name": "Cafe Noir"}}, {"type": "node", "id": 2250299609, "lat": 45.4337532, "lon": 12.3584913, "tags": {"amenity": "drinking_water", "source": "bing"}}, {"type": "node", "id": 2310921367, "lat": 45.3716305, "lon": 12.3383925, "tags": {"amenity": "drinking_water"}}, {"type": "node", "id": 2310921375, "lat": 45.3719018, "lon": 12.3374644, "tags": {"amenity": "drinking_water"}}, {"type": "node", "id": 2363804168, "lat": 45.4577108, "lon": 12.3577086, "tags": {"amenity": "drinking_water"}}, {"type": "node", "id": 2425118798, "lat": 45.4151, "lon": 12.373929, "tags": {"amenity": "drinking_water", "description": "Angolo Gran viale e Via Dardanelli", "source": "wetap.org", "wetap:credit": "marco lachin", "wetap:photo": "http://mdcwetap.atwebpages.com/jpg.php?i=marco lachin 1376559944251.jpg", "wetap:status": "working"}}, {"type": "node", "id": 2425118800, "lat": 45.4152991, "lon": 12.3770882, "tags": {"amenity": "drinking_water", "source": "wetap.org", "wetap:credit": "marco lachin", "wetap:photo": "http://mdcwetap.atwebpages.com/jpg.php?i=marco lachin 1376560300074.jpg", "wetap:status": "broken"}}, {"type": "node", "id": 2425118801, "lat": 45.41588, "lon": 12.371279, "tags": {"amenity": "drinking_water", "description": "Via Ascalona", "source": "wetap.org", "wetap:credit": "marco lachin", "wetap:photo": "http://mdcwetap.atwebpages.com/jpg.php?i=marco lachin 1376559586560.jpg", "wetap:status": "working"}}, {"type": "node", "id": 2425118805, "lat": 45.4388161, "lon": 12.331834, "tags": {"amenity": "drinking_water", "description": "Carampane", "source": "wetap.org", "wetap:credit": "marco lachin", "wetap:photo": "http://mdcwetap.atwebpages.com/jpg.php?i=marco lachin 1376743736254.jpg", "wetap:status": "inactive"}}, {"type": "node", "id": 2425118807, "lat": 45.439075, "lon": 12.331498, "tags": {"amenity": "drinking_water", "description": "Carampane", "source": "wetap.org", "wetap:credit": "marco lachin", "wetap:status": "working"}}, {"type": "node", "id": 2425118808, "lat": 45.439632, "lon": 12.334325, "tags": {"amenity": "drinking_water", "description": "Campo della pescaria", "source": "wetap.org", "wetap:credit": "marco lachin", "wetap:photo": "http://mdcwetap.atwebpages.com/jpg.php?i=marco lachin 1376548252729.jpg", "wetap:status": "working"}}, {"type": "node", "id": 2425989866, "lat": 45.43732, "lon": 12.329949, "tags": {"amenity": "drinking_water", "description": "Campo San Polo", "source": "wetap.org", "wetap:credit": "marco lachin", "wetap:photo": "http://mdcwetap.atwebpages.com/jpg.php?i=marco lachin 1376842986045.jpg", "wetap:status": "working", "wheelchair": "yes"}}, {"type": "node", "id": 2470008484, "lat": 45.4199748, "lon": 12.3570737, "tags": {"amenity": "cafe", "cuisine": "italian", "internet_access": "yes", "name": "VIU Cafe'"}}, {"type": "node", "id": 2477391527, "lat": 45.40707, "lon": 12.368413, "tags": {"amenity": "drinking_water", "description": "Parco Casin\u00f2  estate 7 - 21 inverno 8 - 18.30", "source": "wetap.org", "wetap:credit": "ivanve1", "wetap:photo": "http://mdcwetap.atwebpages.com/jpg.php?i=ivanve11378140904102.jpg", "wetap:status": "working"}}, {"type": "node", "id": 2477391546, "lat": 45.42512, "lon": 12.32685, "tags": {"amenity": "drinking_water", "description": "Campiello Ferrando", "source": "wetap.org", "wetap:credit": "ivanve1", "wetap:status": "working"}}, {"type": "node", "id": 2477391552, "lat": 45.425465, "lon": 12.329492, "tags": {"amenity": "drinking_water", "description": "Ponte Lungo Fondamenta san Giacomo", "source": "wetap.org", "wetap:credit": "ivanve1", "wetap:photo": "http://mdcwetap.atwebpages.com/jpg.php?i=ivanve11379748014222.jpg", "wetap:status": "working"}}, {"type": "node", "id": 2477391561, "lat": 45.429752, "lon": 12.331196, "tags": {"amenity": "drinking_water", "description": "Corte del Sabbion", "source": "wetap.org", "wetap:credit": "ivanve1", "wetap:photo": "http://mdcwetap.atwebpages.com/jpg.php?i=ivanve11378966714665.jpg", "wetap:status": "working"}}, {"type": "node", "id": 2477395748, "lat": 45.4470616, "lon": 12.3265749, "tags": {"amenity": "drinking_water", "description": "calle dei Riformati", "source": "wetap.org", "wetap:credit": "ivanve1", "wetap:photo": "http://mdcwetap.atwebpages.com/jpg.php?i=ivanve11378481004570.jpg", "wetap:status": "working"}}, {"type": "node", "id": 2482210452, "lat": 45.4414112, "lon": 12.3224193, "tags": {"addr:housenumber": "58", "addr:neighbourhood": "Cannaregio", "addr:place": "Cannaregio", "amenity": "cafe", "name": "Snak Bar"}}, {"type": "node", "id": 2482252834, "lat": 45.4465108, "lon": 12.3247523, "tags": {"amenity": "drinking_water"}}, {"type": "node", "id": 2497573568, "lat": 45.4162648, "lon": 12.3704144, "tags": {"amenity": "cafe", "internet_access": "wlan", "name": "Al Canton del Galle"}}, {"type": "node", "id": 2955556196, "lat": 45.4356654, "lon": 12.3442352, "tags": {"addr:housenumber": "4977d", "addr:neighbourhood": "Castello", "addr:place": "Castello", "amenity": "cafe", "name": "Moka Efti Crazy Bar"}}, {"type": "node", "id": 2960032430, "lat": 45.4387576, "lon": 12.3355914, "tags": {"amenity": "cafe", "name": "Caffe Vergnano", "website": "http://www.caffevergnano1882veneziarialto.com/", "wheelchair": "no"}}, {"type": "node", "id": 3002742587, "lat": 45.4332212, "lon": 12.3507678, "tags": {"amenity": "drinking_water", "source": "survey;Bing", "source:date": "2017"}}, {"type": "node", "id": 3002745973, "lat": 45.4574828, "lon": 12.3512999, "tags": {"amenity": "drinking_water", "source": "survey"}}, {"type": "node", "id": 3007152074, "lat": 45.4161878, "lon": 12.3706826, "tags": {"addr:city": "Lido do Venezia", "addr:housenumber": "18", "addr:postcode": "30126", "addr:street": "Gran Viale Santa Maria Elisabetta", "amenity": "cafe", "delivery:covid19": "yes", "delivery:description:it": "Attivazione servizio a domicilio di generi di prima necessit\u00e0 per COVID-19", "name": "Rizzo Gran Viale", "outdoor_seating": "yes"}}, {"type": "node", "id": 3016775612, "lat": 45.4562664, "lon": 12.3547849, "tags": {"amenity": "drinking_water"}}, {"type": "node", "id": 3016776133, "lat": 45.4538561, "lon": 12.3517274, "tags": {"amenity": "drinking_water"}}, {"type": "node", "id": 3099218751, "lat": 45.4049634, "lon": 12.3669599, "tags": {"amenity": "cafe", "name": "Gelato Fabio"}}, {"type": "node", "id": 3389131410, "lat": 45.440087, "lon": 12.3253723, "tags": {"addr:housenumber": "1099", "addr:neighbourhood": "Santa Croce", "amenity": "cafe", "name": "Bar Rosa"}}, {"type": "node", "id": 3393895653, "lat": 45.440006, "lon": 12.321786, "tags": {"amenity": "cafe", "name": "Carlton Caf\u00e8"}}, {"type": "node", "id": 3398707712, "lat": 45.4368937, "lon": 12.3212747, "tags": {"addr:housenumber": "3528", "addr:neighbourhood": "Dorsoduro", "amenity": "cafe", "name": "Bar Pasticceria La Bauta"}}, {"type": "node", "id": 3403782914, "lat": 45.4358403, "lon": 12.3225744, "tags": {"amenity": "drinking_water", "disused": "yes"}}, {"type": "node", "id": 3495812754, "lat": 45.4302261, "lon": 12.3232703, "tags": {"amenity": "cafe"}}, {"type": "node", "id": 3503833759, "lat": 45.4348139, "lon": 12.3237796, "tags": {"addr:housenumber": "2996", "addr:neighbourhood": "Dorsoduro", "amenity": "cafe", "name": "Skill\u00e0 Bar", "wheelchair": "yes"}}, {"type": "node", "id": 3522319747, "lat": 45.4437428, "lon": 12.3260747, "tags": {"addr:housenumber": "1306", "addr:neighbourhood": "Cannaregio", "addr:place": "Cannaregio", "amenity": "cafe", "name": "Bar Gelateria da Nini", "wheelchair": "limited"}}, {"type": "node", "id": 3527984719, "lat": 45.4415216, "lon": 12.3225852, "tags": {"addr:housenumber": "116", "addr:neighbourhood": "Cannaregio", "addr:place": "Cannaregio", "amenity": "cafe", "name": "Bar Olimpia", "wheelchair": "limited"}}, {"type": "node", "id": 3527984757, "lat": 45.4432126, "lon": 12.3246804, "tags": {"addr:housenumber": "291", "addr:neighbourhood": "Cannaregio", "addr:place": "Cannaregio", "amenity": "cafe", "name": "Snack Anhela Bar", "wheelchair": "limited"}}, {"type": "node", "id": 3527984768, "lat": 45.4435651, "lon": 12.325243, "tags": {"addr:housenumber": "321", "addr:neighbourhood": "Cannaregio", "addr:place": "Cannaregio", "amenity": "cafe", "wheelchair": "no"}}, {"type": "node", "id": 3760144116, "lat": 45.4336171, "lon": 12.3382745, "tags": {"addr:housenumber": "57", "addr:neighbourhood": "San Marco", "addr:place": "San Marco", "addr:postcode": "30124", "addr:street": "Piazza San Marco", "amenity": "cafe", "email": "servizi@caffeflorian.com", "name": "Caff\u00e8 Florian", "name:zh": "\u5f17\u6d1b\u91cc\u5b89\u5496\u5561\u9986", "opening_hours": "Mo-Su 09:00-00:00", "phone": "+39415205641", "website": "https://www.caffeflorian.com/", "wikidata": "Q960610", "wikipedia": "it:Caff\u00e8 Florian"}}, {"type": "node", "id": 3796613258, "lat": 45.4401322, "lon": 12.378656, "tags": {"amenity": "drinking_water"}}, {"type": "node", "id": 3838954940, "lat": 45.4318199, "lon": 12.3515131, "tags": {"amenity": "cafe", "name": "Melograno", "wheelchair": "yes"}}, {"type": "node", "id": 3838956350, "lat": 45.452744, "lon": 12.3541214, "tags": {"amenity": "cafe", "name": "Approdo"}}, {"type": "node", "id": 3851352628, "lat": 45.4320544, "lon": 12.35231, "tags": {"amenity": "cafe", "name": "Cafe Majer"}}, {"type": "node", "id": 3877321050, "lat": 45.430686, "lon": 12.3567769, "tags": {"addr:housenumber": "930", "addr:street": "Fondamenta S. Giuseppe", "amenity": "cafe", "name": "Osteria Al Ponte"}}, {"type": "node", "id": 3884049415, "lat": 45.4374025, "lon": 12.3356527, "tags": {"addr:housenumber": "5121", "addr:neighbourhood": "San Marco", "addr:place": "San Marco", "amenity": "cafe", "name": "Bar \"Mister Sandwich\"", "ref:vatin": "IT02735050276"}}, {"type": "node", "id": 3884049416, "lat": 45.4332508, "lon": 12.33942, "tags": {"addr:housenumber": "3", "addr:neighbourhood": "San Marco", "addr:place": "San Marco", "amenity": "cafe", "contact:phone": "+39 041 5285165", "contact:website": "http://www.al-todaro.it/", "name": "Bar Gelateria \"Al Todaro\"", "ref:vatin": "IT00204950273"}}, {"type": "node", "id": 3884049418, "lat": 45.4337499, "lon": 12.3387563, "tags": {"addr:housenumber": "48", "addr:neighbourhood": "San Marco", "addr:place": "San Marco", "amenity": "cafe", "name": "Caff\u00e8 Aurora", "ref:vatin": "IT02037550270"}}, {"type": "node", "id": 3931242729, "lat": 45.4448955, "lon": 12.3219999, "tags": {"amenity": "cafe", "name": "Creperie Cocaeta", "opening_hours": "We-Mo 10:00-15:30"}}, {"type": "node", "id": 4187989723, "lat": 45.4316369, "lon": 12.3266873, "tags": {"amenity": "cafe", "cuisine": "italian;pizza;italian_pizza;cake;local;coffee_shop", "name": "Bar de Maravegie"}}, {"type": "node", "id": 4198442538, "lat": 45.4432144, "lon": 12.3316422, "tags": {"addr:housenumber": "2208", "addr:neighbourhood": "Cannaregio", "addr:place": "Cannaregio", "addr:postcode": "30100", "amenity": "cafe", "name": "Caffee Filermo", "phone": "30100", "wheelchair": "limited"}}, {"type": "node", "id": 4198442539, "lat": 45.4433306, "lon": 12.3315048, "tags": {"addr:housenumber": "Canneregio 2329", "addr:neighbourhood": "Cannaregio", "addr:place": "Cannaregio", "amenity": "cafe", "description": "Tapas Style Food", "name": "Cantina Vecia Carbonera", "wheelchair": "yes"}}, {"type": "node", "id": 4198508313, "lat": 45.4326429, "lon": 12.3240246, "tags": {"amenity": "cafe", "cuisine": "teahouse", "name": "Tea Room Beatrice", "phone": "+39 347 401 6725", "website": "https://fujiyama.life/"}}, {"type": "node", "id": 4217834486, "lat": 45.4374302, "lon": 12.3383885, "tags": {"amenity": "cafe", "name": "Nino & Friends"}}, {"type": "node", "id": 4217838068, "lat": 45.4376031, "lon": 12.3368665, "tags": {"addr:housenumber": "5309", "addr:neighbourhood": "San Marco", "addr:place": "San Marco", "amenity": "cafe", "name": "Caff\u00e9 Rialto"}}, {"type": "node", "id": 4226406294, "lat": 45.4372589, "lon": 12.3392784, "tags": {"addr:housenumber": "5272", "addr:street": "Salizada San Lio", "amenity": "cafe", "cuisine": "ice_cream", "name": "La Boutique del Gelato", "opening_hours": "Mo-Su 10:30-22:00"}}, {"type": "node", "id": 4234614966, "lat": 45.4348666, "lon": 12.3324024, "tags": {"amenity": "cafe", "name": "Teamo"}}, {"type": "node", "id": 4238218991, "lat": 45.4562705, "lon": 12.3555832, "tags": {"amenity": "cafe", "name": "Lagare Caf\u00e8"}}, {"type": "node", "id": 4240308914, "lat": 45.4315375, "lon": 12.3279852, "tags": {"amenity": "cafe", "name": "Beccafico Caf\u00e9"}}, {"type": "node", "id": 4270242790, "lat": 45.4447344, "lon": 12.3297153, "tags": {"addr:housenumber": "1861", "addr:neighbourhood": "Cannaregio", "addr:place": "Cannaregio", "addr:street": "Calle dell'Aseo Cannaregio", "amenity": "cafe", "description": "Take Away Pizza", "name": "Arte Della Pizza", "name:ru": "\u0425\u043e\u0440\u043e\u0448\u0430\u044f \u043f\u0438\u0446\u0435\u0440\u0438\u044f", "opening_hours": "11:00 - 21:00", "phone": "+39 0415246520"}}, {"type": "node", "id": 4293258189, "lat": 45.4396263, "lon": 12.3346489, "tags": {"amenity": "drinking_water"}}, {"type": "node", "id": 4294717490, "lat": 45.4115392, "lon": 12.373685, "tags": {"addr:street": "Lungomare Guglielmo Marconi", "amenity": "cafe", "cuisine": "coffee_shop", "name": "refresh"}}, {"type": "node", "id": 4322975889, "lat": 45.438758, "lon": 12.3350043, "tags": {"amenity": "cafe", "name": "Bar rialto da lollo"}}, {"type": "node", "id": 4347719671, "lat": 45.4331667, "lon": 12.3309485, "tags": {"addr:city": "Venezia", "addr:country": "IT", "addr:housenumber": "2797", "addr:neighbourhood": "San Marco", "addr:postcode": "30124", "amenity": "cafe", "email": "info@lecafevenezia.com", "name": "le Caf\u00e9", "phone": "+39 041 5237201", "website": "http://www.lecafevenezia.com/"}}, {"type": "node", "id": 4366618291, "lat": 45.437306, "lon": 12.3272828, "tags": {"addr:city": "Venezia", "addr:housenumber": "2564", "addr:postcode": "30100", "addr:street": "Calle del Scaleter", "amenity": "cafe", "delivery:covid19": "yes", "delivery:description:it": "Attivazione servizio a domicilio di generi di prima necessit\u00e0 per COVID-19", "facebook": "https://www.facebook.com/Storico-Caff%C3%A8-dei-Frari-O-Toppo-2095313374025453/", "name": "Caff\u00e8 Dei Frari", "phone": "3478293158", "wheelchair": "limited"}}, {"type": "node", "id": 4372805396, "lat": 45.4345345, "lon": 12.3384501, "tags": {"addr:housenumber": "133", "addr:neighbourhood": "San Marco", "addr:place": "San Marco", "amenity": "cafe", "name": "Caff\u00e8 Lavena"}}, {"type": "node", "id": 4437784461, "lat": 45.4345247, "lon": 12.3418314, "tags": {"addr:housenumber": "4199", "addr:neighbourhood": "Castello", "addr:place": "Castello", "amenity": "cafe", "name": "Snack bar Clodia"}}, {"type": "node", "id": 4449378234, "lat": 45.4410163, "lon": 12.3412215, "tags": {"amenity": "drinking_water"}}, {"type": "node", "id": 4462399095, "lat": 45.4388716, "lon": 12.3371149, "tags": {"addr:housenumber": "5794", "addr:neighbourhood": "Cannaregio", "addr:place": "Cannaregio", "addr:postcode": "30121", "addr:street": "Salizada San Giovanni Grisostomo", "amenity": "cafe", "cuisine": "local;italian;coffee_shop", "name": "Ballarin bar", "opening_hours": "Mo-Su 07:30-19:30"}}, {"type": "node", "id": 4469195194, "lat": 45.443873, "lon": 12.3290536, "tags": {"amenity": "cafe", "name": "Pasticceria Nobile", "wheelchair": "limited"}}, {"type": "node", "id": 4479970534, "lat": 45.4372059, "lon": 12.3371869, "tags": {"addr:housenumber": "5244", "addr:neighbourhood": "San Marco", "addr:place": "San Marco", "amenity": "cafe", "name": "Snack Bar Ai Stagneri"}}, {"type": "node", "id": 4492344894, "lat": 45.4349712, "lon": 12.3238402, "tags": {"addr:street": "Campo Santa Margherita", "amenity": "cafe", "name": "Caf\u00e9 Ai Do Draghi", "outdoor_seating": "yes", "smoking": "outside", "toilets:wheelchair": "yes", "wheelchair": "yes"}}, {"type": "node", "id": 4514239789, "lat": 45.4322464, "lon": 12.3509725, "tags": {"addr:housenumber": "1664", "addr:street": "Don\u00e0", "amenity": "cafe", "name": "Al Vecio Calice", "name:it": "Al Vecio Calice"}}, {"type": "node", "id": 4659139591, "lat": 45.4461084, "lon": 12.3262708, "tags": {"amenity": "cafe", "name": "La Bagatela", "name:it": "La Bagatela"}}, {"type": "node", "id": 4741454630, "lat": 45.4357776, "lon": 12.3251317, "tags": {"amenity": "cafe", "name": "wine and music", "name:it": "wine and music", "opening_hours": "Sa-Th 12:00-23:59; Fr 10:00-23:59", "wheelchair": "yes"}}, {"type": "node", "id": 4798313737, "lat": 45.4362715, "lon": 12.3287685, "tags": {"amenity": "cafe", "name": "Caff\u00e8 dei Frari", "name:it": "Caff\u00e8 dei Frari"}}, {"type": "node", "id": 4798329531, "lat": 45.452921, "lon": 12.3544888, "tags": {"amenity": "cafe", "name": "Bar al Faro"}}, {"type": "node", "id": 4819941852, "lat": 45.4450622, "lon": 12.3269852, "tags": {"addr:housenumber": "2902B", "addr:neighbourhood": "Cannaregio", "addr:place": "Cannaregio", "amenity": "cafe", "name": "Kasher", "opening_hours": "Su-Th 10:00-18:00", "operator": "Mediterranea SaS.", "ref:vatin": "IT03612310270"}}, {"type": "node", "id": 4820401221, "lat": 45.4402453, "lon": 12.3368238, "tags": {"addr:housenumber": "4462", "addr:neighbourhood": "Cannaregio", "addr:place": "Cannaregio", "addr:postcode": "30121", "amenity": "cafe", "name": "Osteria dal Riccio Peoco", "opening_hours": "Mo-Su 10:00-01:45", "wheelchair": "limited"}}, {"type": "node", "id": 4848331529, "lat": 45.4381792, "lon": 12.3394569, "tags": {"addr:housenumber": "5902/a", "addr:neighbourhood": "Castello", "addr:place": "Castello", "addr:postcode": "30122", "addr:street": "Campo Santa Marina", "amenity": "cafe", "cuisine": "italian", "name": "Baci & Pasta", "opening_hours": "Mo-Su 12:00-20:00", "phone": "+390415647400"}}, {"type": "node", "id": 4852289321, "lat": 45.4350136, "lon": 12.3371052, "tags": {"addr:housenumber": "989", "addr:street": "Rio Ter\u00e0 de le Colonne", "amenity": "cafe", "name": "Venchi"}}, {"type": "node", "id": 4857557094, "lat": 45.4407251, "lon": 12.3204183, "tags": {"amenity": "cafe", "name": "Bistrot Santa Lucia", "outdoor_seating": "yes", "wheelchair": "yes"}}, {"type": "node", "id": 4876741941, "lat": 45.430851, "lon": 12.3573847, "tags": {"addr:housenumber": "754", "addr:street": "Fondamenta S. Giuseppe", "amenity": "cafe", "name": "Antica Osteria da Gino"}}, {"type": "node", "id": 4878879683, "lat": 45.4290777, "lon": 12.3595792, "tags": {"amenity": "cafe"}}, {"type": "node", "id": 4941722121, "lat": 45.4366545, "lon": 12.3267044, "tags": {"amenity": "cafe", "cuisine": "coffee_shop;cake", "name": "Bottega del caffe DERSUT"}}, {"type": "node", "id": 4945409405, "lat": 45.4551655, "lon": 12.3529284, "tags": {"addr:street": "Via Mario Tabanelli", "amenity": "drinking_water"}}, {"type": "node", "id": 4955472977, "lat": 45.4153579, "lon": 12.3737086, "tags": {"amenity": "drinking_water"}}, {"type": "node", "id": 4958498423, "lat": 45.4314353, "lon": 12.3577274, "tags": {"amenity": "drinking_water"}}, {"type": "node", "id": 4958933616, "lat": 45.4584406, "lon": 12.357341, "tags": {"amenity": "drinking_water"}}, {"type": "node", "id": 4998734624, "lat": 45.4347967, "lon": 12.3415028, "tags": {"addr:housenumber": "4237", "addr:neighbourhood": "Castello", "addr:place": "Castello", "amenity": "cafe", "name": "Pasticceria Bonifacio", "operator": "Michele Bonifacio S.A.S. di Carlotta Bortoluzzi & C.", "phone": "+39 041 5227507", "ref:vatin": "IT00099250276"}}, {"type": "node", "id": 4998764925, "lat": 45.4344063, "lon": 12.3234813, "tags": {"amenity": "cafe", "name": "Il Caff\u00e8", "name:it": "Il Caff\u00e8"}}, {"type": "node", "id": 4998786721, "lat": 45.4390914, "lon": 12.3348454, "tags": {"addr:housenumber": "219", "addr:neighbourhood": "San Polo", "amenity": "cafe", "name": "Barcollo", "wheelchair": "no"}}, {"type": "node", "id": 5007096799, "lat": 45.4298072, "lon": 12.3570243, "tags": {"amenity": "cafe", "cuisine": "sandwich"}}, {"type": "node", "id": 5010909621, "lat": 45.4404495, "lon": 12.3296181, "tags": {"addr:housenumber": "1908", "addr:postcode": "30135", "amenity": "cafe", "cuisine": "coffee_shop", "internet_access": "wlan", "name": "Boresso", "name:ru": "boresso", "opening_hours": "Mo-Su 07:00-15:30", "operator": "alessandro fantin", "phone": "+393470006415"}}, {"type": "node", "id": 5025407122, "lat": 45.438657, "lon": 12.3429715, "tags": {"amenity": "cafe", "name": "Caffe Molinari", "name:it": "Caffe Molinari"}}, {"type": "node", "id": 5076969323, "lat": 45.4269119, "lon": 12.3604584, "tags": {"addr:housenumber": "36", "addr:street": "Viale Quattro Novembre", "amenity": "cafe", "internet_access": "wlan", "name": "Vincent bar", "name:cs": "Vincent bar"}}, {"type": "node", "id": 5108050121, "lat": 45.439229, "lon": 12.3231662, "tags": {"amenity": "cafe", "name": "punto G"}}, {"type": "node", "id": 5149219332, "lat": 45.4384276, "lon": 12.3340051, "tags": {"addr:housenumber": "776", "addr:postcode": "30125", "addr:street": "Calle del Volto o Ruga Vecchia", "amenity": "cafe", "name": "Goppion Cafe", "opening_hours": "Mo-Su 06:30-19:00", "website": "http://www.goppioncaffe.it/", "wheelchair": "limited"}}, {"type": "node", "id": 5149222821, "lat": 45.4383564, "lon": 12.3342461, "tags": {"addr:housenumber": "609", "addr:postcode": "30125", "addr:street": "Calle dei Cinque", "amenity": "cafe", "name": "Caf\u00e9 del Doge Caffetteria Rialto", "opening_hours": "Mo-Su 07:00-19:00", "phone": "+39 041 522 7787", "website": "https://www.caffedeldoge.com/"}}, {"type": "node", "id": 5178668621, "lat": 45.4359641, "lon": 12.3354376, "tags": {"amenity": "cafe"}}, {"type": "node", "id": 5217494723, "lat": 45.4372521, "lon": 12.3273256, "tags": {"addr:housenumber": "2564", "addr:postcode": "30125", "addr:street": "Fondamenta dei Frari", "amenity": "cafe", "name": "Il Mercante", "opening_hours": "Su, We-Th 18:00-01:00; Fr-Sa 18:00-02:00", "phone": "+390414767305", "website": "http://www.ilmercantevenezia.com", "wheelchair": "limited"}}, {"type": "node", "id": 5238321396, "lat": 45.441743, "lon": 12.3211244, "tags": {"addr:city": "Venezia", "addr:postcode": "30121", "addr:street": "Fondamenta Santa Lucia", "amenity": "cafe", "name": "'a Puteca", "opening_hours": "Mo-Su 07:00-22:00", "operator": "Rossopomodoro", "outdoor_seating": "no", "website": "https://www.veneziasantalucia.it/it/offertacommerciale/dettaglio/rossopomodoro"}}, {"type": "node", "id": 5341614921, "lat": 45.4439679, "lon": 12.3282567, "tags": {"addr:street": "Rio Tera' San Leonardo", "amenity": "cafe", "cuisine": "coffee_shop;cake", "name": "Caff\u00e9 Del Doge", "name:en": "Caffe Del Doge", "wheelchair": "yes"}}, {"type": "node", "id": 5360338819, "lat": 45.4345252, "lon": 12.3430199, "tags": {"amenity": "drinking_water"}}, {"type": "node", "id": 5360490711, "lat": 45.4347308, "lon": 12.3390236, "tags": {"addr:housenumber": "302", "addr:neighbourhood": "San Marco", "addr:place": "San Marco", "amenity": "cafe", "name": "American Snack Bar"}}, {"type": "node", "id": 5360645773, "lat": 45.4403568, "lon": 12.328018, "tags": {"amenity": "drinking_water"}}, {"type": "node", "id": 5360856760, "lat": 45.4414059, "lon": 12.3339371, "tags": {"amenity": "drinking_water", "wheelchair": "yes"}}, {"type": "node", "id": 5360885480, "lat": 45.4431915, "lon": 12.3236788, "tags": {"amenity": "drinking_water"}}, {"type": "node", "id": 5361276740, "lat": 45.4330012, "lon": 12.3389268, "tags": {"amenity": "drinking_water"}}, {"type": "node", "id": 5361308215, "lat": 45.4329005, "lon": 12.3498188, "tags": {"amenity": "drinking_water", "wheelchair": "yes"}}, {"type": "node", "id": 5361308220, "lat": 45.4315304, "lon": 12.3528534, "tags": {"amenity": "drinking_water"}}, {"type": "node", "id": 5361310224, "lat": 45.4292233, "lon": 12.3564329, "tags": {"amenity": "drinking_water"}}, {"type": "node", "id": 5361310225, "lat": 45.4300915, "lon": 12.359835, "tags": {"amenity": "drinking_water"}}, {"type": "node", "id": 5363452728, "lat": 45.430686, "lon": 12.3587831, "tags": {"amenity": "drinking_water"}}, {"type": "node", "id": 5363572346, "lat": 45.4333449, "lon": 12.3565851, "tags": {"amenity": "drinking_water"}}, {"type": "node", "id": 5363720454, "lat": 45.4340697, "lon": 12.3499002, "tags": {"amenity": "drinking_water"}}, {"type": "node", "id": 5363785501, "lat": 45.434504, "lon": 12.3496824, "tags": {"amenity": "cafe"}}, {"type": "node", "id": 5363785502, "lat": 45.434618, "lon": 12.3497048, "tags": {"amenity": "cafe"}}, {"type": "node", "id": 5364430126, "lat": 45.438886, "lon": 12.3427193, "tags": {"amenity": "drinking_water"}}, {"type": "node", "id": 5364525644, "lat": 45.4414148, "lon": 12.3286363, "tags": {"amenity": "drinking_water"}}, {"type": "node", "id": 5364657882, "lat": 45.4442424, "lon": 12.333463, "tags": {"amenity": "drinking_water"}}, {"type": "node", "id": 5365979872, "lat": 45.4303975, "lon": 12.3322674, "tags": {"amenity": "drinking_water"}}, {"type": "node", "id": 5366088031, "lat": 45.430026, "lon": 12.3240151, "tags": {"amenity": "drinking_water"}}, {"type": "node", "id": 5366141204, "lat": 45.4307615, "lon": 12.3203435, "tags": {"amenity": "drinking_water"}}, {"type": "node", "id": 5366190365, "lat": 45.4289724, "lon": 12.3339585, "tags": {"amenity": "drinking_water"}}, {"type": "node", "id": 5366197830, "lat": 45.4288017, "lon": 12.3320047, "tags": {"amenity": "drinking_water"}}, {"type": "node", "id": 5366207016, "lat": 45.4300645, "lon": 12.333509, "tags": {"amenity": "drinking_water"}}, {"type": "node", "id": 5366748175, "lat": 45.4373551, "lon": 12.3488676, "tags": {"amenity": "drinking_water"}}, {"type": "node", "id": 5366899349, "lat": 45.4372519, "lon": 12.3411967, "tags": {"amenity": "drinking_water"}}, {"type": "node", "id": 5366925033, "lat": 45.4394687, "lon": 12.3336122, "tags": {"amenity": "drinking_water"}}, {"type": "node", "id": 5368105261, "lat": 45.4341631, "lon": 12.3236236, "tags": {"amenity": "drinking_water", "wheelchair": "yes"}}, {"type": "node", "id": 5368446463, "lat": 45.4453582, "lon": 12.3269428, "tags": {"amenity": "drinking_water"}}, {"type": "node", "id": 5368599309, "lat": 45.4466129, "lon": 12.3308225, "tags": {"amenity": "drinking_water"}}, {"type": "node", "id": 5368630486, "lat": 45.4483053, "lon": 12.3274701, "tags": {"amenity": "drinking_water"}}, {"type": "node", "id": 5368656867, "lat": 45.4472741, "lon": 12.3286143, "tags": {"amenity": "drinking_water"}}, {"type": "node", "id": 5368795232, "lat": 45.4445939, "lon": 12.3241048, "tags": {"amenity": "drinking_water"}}, {"type": "node", "id": 5370747682, "lat": 45.4381067, "lon": 12.3374916, "tags": {"amenity": "drinking_water"}}, {"type": "node", "id": 5371006271, "lat": 45.4349897, "lon": 12.3473842, "tags": {"amenity": "drinking_water"}}, {"type": "node", "id": 5371097029, "lat": 45.4363387, "lon": 12.3472654, "tags": {"amenity": "drinking_water"}}, {"type": "node", "id": 5371099512, "lat": 45.4361434, "lon": 12.3486014, "tags": {"amenity": "drinking_water"}}, {"type": "node", "id": 5371110464, "lat": 45.4360265, "lon": 12.3492407, "tags": {"amenity": "drinking_water"}}, {"type": "node", "id": 5371160660, "lat": 45.4380434, "lon": 12.3475453, "tags": {"amenity": "drinking_water"}}, {"type": "node", "id": 5371367833, "lat": 45.4427831, "lon": 12.3382876, "tags": {"amenity": "drinking_water"}}, {"type": "node", "id": 5373002773, "lat": 45.4409673, "lon": 12.3267343, "tags": {"amenity": "drinking_water"}}, {"type": "node", "id": 5373032015, "lat": 45.4403682, "lon": 12.3271149, "tags": {"amenity": "drinking_water"}}, {"type": "node", "id": 5373746086, "lat": 45.4330256, "lon": 12.3575417, "tags": {"amenity": "drinking_water"}}, {"type": "node", "id": 5379379521, "lat": 45.4350493, "lon": 12.3307968, "tags": {"amenity": "drinking_water"}}, {"type": "node", "id": 5421662425, "lat": 45.4364733, "lon": 12.3356925, "tags": {"addr:housenumber": "4772", "addr:postcode": "30124", "addr:street": "Calle del Teatro o de la Commedia", "amenity": "cafe", "name": "Gelateria Al Teatro"}}, {"type": "node", "id": 5433238322, "lat": 45.4376946, "lon": 12.3372526, "tags": {"addr:housenumber": "5424/A", "addr:street": "Sotoportego de la Bissa", "amenity": "cafe", "name": "Ristorante San Bartolomeo", "name:en": "Ristorante San Bartolomeo", "opening_hours": "Mo-Su 09:00-21:30"}}, {"type": "node", "id": 5433333129, "lat": 45.4299245, "lon": 12.3260469, "tags": {"addr:housenumber": "992", "addr:street": "Fondamenta Nani", "amenity": "cafe", "fixme": "posizione", "name": "Al Bottegon"}}, {"type": "node", "id": 5438300221, "lat": 45.4366985, "lon": 12.3344402, "tags": {"addr:housenumber": "4175", "addr:street": "Riva del Carbon", "amenity": "cafe", "cuisine": "italian_pizza;italian;mediterranean", "internet_access": "wlan", "name": "Self Service Rialto", "opening_hours": "Mo-Su 11:30-14:30"}}, {"type": "node", "id": 5525037211, "lat": 45.4325746, "lon": 12.3555834, "tags": {"amenity": "cafe", "name": "Bar Pasticceria", "wheelchair": "limited"}}, {"type": "node", "id": 5550675264, "lat": 45.4368474, "lon": 12.3388364, "tags": {"amenity": "drinking_water"}}, {"type": "node", "id": 5554511821, "lat": 45.4364056, "lon": 12.3264451, "tags": {"amenity": "cafe", "name": "Adagio Caffe & Wine Bar"}}, {"type": "node", "id": 5554577322, "lat": 45.4588386, "lon": 12.4095889, "tags": {"amenity": "drinking_water", "name": "Acqua potabile"}}, {"type": "node", "id": 5554615421, "lat": 45.454523, "lon": 12.3886513, "tags": {"amenity": "drinking_water", "name": "Acqua potabile"}}, {"type": "node", "id": 5564763689, "lat": 45.4372746, "lon": 12.3481111, "tags": {"amenity": "drinking_water"}}, {"type": "node", "id": 5600498646, "lat": 45.4361258, "lon": 12.3420473, "tags": {"amenity": "drinking_water", "disused": "yes", "survey:date": "06-05-2018"}}, {"type": "node", "id": 5617557021, "lat": 45.4378769, "lon": 12.3232553, "tags": {"amenity": "cafe", "name": "Angelo poretti"}}, {"type": "node", "id": 5627052251, "lat": 45.4383991, "lon": 12.3348121, "tags": {"amenity": "drinking_water"}}, {"type": "node", "id": 5632823924, "lat": 45.4349896, "lon": 12.3209093, "tags": {"amenity": "cafe", "name": "Youghurt Creperia Marie", "wheelchair": "no"}}, {"type": "node", "id": 5688493722, "lat": 45.4288373, "lon": 12.3616001, "tags": {"amenity": "cafe", "name": "Trattoria Al Diporto"}}, {"type": "node", "id": 5719718221, "lat": 45.435493, "lon": 12.3322164, "tags": {"amenity": "drinking_water"}}, {"type": "node", "id": 5720219921, "lat": 45.4353829, "lon": 12.3323399, "tags": {"amenity": "drinking_water"}}, {"type": "node", "id": 5720884953, "lat": 45.4336609, "lon": 12.329115, "tags": {"amenity": "drinking_water"}}, {"type": "node", "id": 5739473234, "lat": 45.4359562, "lon": 12.323931, "tags": {"amenity": "drinking_water", "wheelchair": "yes"}}, {"type": "node", "id": 5744461818, "lat": 45.4457391, "lon": 12.3276985, "tags": {"addr:city": "Venezia", "addr:housenumber": "2804", "addr:postcode": "30121", "addr:street": "Fondamenta degli Ormesini", "amenity": "cafe", "cuisine": "coffee_shop", "name": "Torrefazione Cannaregio", "opening_hours": "Mo-Sa 07:00-19:30 / Su 07:00-18:30", "outdoor_seating": "no"}}, {"type": "node", "id": 5804844003, "lat": 45.4437217, "lon": 12.3257435, "tags": {"amenity": "cafe", "wheelchair": "limited"}}, {"type": "node", "id": 5805275904, "lat": 45.4431432, "lon": 12.3248214, "tags": {"amenity": "drinking_water", "wheelchair": "yes"}}, {"type": "node", "id": 5809868060, "lat": 45.437872, "lon": 12.3215979, "tags": {"amenity": "drinking_water"}}, {"type": "node", "id": 5835161805, "lat": 45.4257794, "lon": 12.325654, "tags": {"amenity": "drinking_water"}}, {"type": "node", "id": 5842459402, "lat": 45.4258996, "lon": 12.3230572, "tags": {"amenity": "drinking_water"}}, {"type": "node", "id": 5931073685, "lat": 45.451309, "lon": 12.3487189, "tags": {"amenity": "cafe"}}, {"type": "node", "id": 5937716385, "lat": 45.4372187, "lon": 12.3405864, "tags": {"amenity": "cafe", "name": "Gelateria"}}, {"type": "node", "id": 5937812490, "lat": 45.4338604, "lon": 12.3468207, "tags": {"amenity": "cafe", "name": "Tabacchi", "wheelchair": "no"}}, {"type": "node", "id": 5937812492, "lat": 45.4338811, "lon": 12.3465373, "tags": {"amenity": "cafe", "name": "Venice Cream"}}, {"type": "node", "id": 5937822785, "lat": 45.4321373, "lon": 12.3513133, "tags": {"amenity": "cafe", "name": "Snack Bar Castello", "wheelchair": "yes"}}, {"type": "node", "id": 5938395395, "lat": 45.4394045, "lon": 12.3371043, "tags": {"amenity": "cafe", "name": "Millevoggie", "wheelchair": "yes"}}, {"type": "node", "id": 5938408385, "lat": 45.4410876, "lon": 12.3343352, "tags": {"amenity": "cafe", "name": "12 Oz Coffee Joint", "wheelchair": "yes"}}, {"type": "node", "id": 6028116086, "lat": 45.4339804, "lon": 12.3475994, "tags": {"amenity": "cafe", "name": "Snack Bar Arcobaleno"}}, {"type": "node", "id": 6028116094, "lat": 45.4340814, "lon": 12.3463545, "tags": {"addr:housenumber": "3736", "amenity": "cafe"}}, {"type": "node", "id": 6337806743, "lat": 45.4408566, "lon": 12.3231013, "tags": {"amenity": "cafe", "name": "Magnum Venezia"}}, {"type": "node", "id": 6428467671, "lat": 45.4363886, "lon": 12.3257426, "tags": {"amenity": "drinking_water"}}, {"type": "node", "id": 6441258986, "lat": 45.4352727, "lon": 12.3379104, "tags": {"addr:housenumber": "951", "addr:postcode": "30124", "addr:street": "Calle Fiubera", "amenity": "cafe", "delivery:covid19": "covid19=yes", "delivery:description:it": "\"Attivazione servizio a domicilio di generi di prima necessit\u00e0 per COVID-19\"", "email": "shop@rosasalva.it", "facebook": "https://www.facebook.com/rosasalva.venezia/", "name": "Rosa Salva", "opening_hours": "Orari di apertura: 08:00 - 20:00", "phone": "0415210544;041988400", "website": "https://shop.rosasalva.it/"}}, {"type": "node", "id": 6603965500, "lat": 45.4346458, "lon": 12.3330792, "tags": {"amenity": "cafe", "name": "Caff\u00e8 Brasilia"}}, {"type": "node", "id": 6611821885, "lat": 45.4334561, "lon": 12.3342749, "tags": {"amenity": "cafe", "cuisine": "italian_pizza;pizza", "internet_access": "wlan", "name": "AE Veste"}}, {"type": "node", "id": 6796476431, "lat": 45.4290102, "lon": 12.3581906, "tags": {"amenity": "cafe"}}, {"type": "node", "id": 6955544685, "lat": 45.4347657, "lon": 12.3374248, "tags": {"amenity": "cafe", "name": "Happy Pizza"}}, {"type": "node", "id": 7019048654, "lat": 45.4383903, "lon": 12.3452714, "tags": {"amenity": "drinking_water"}}, {"type": "node", "id": 7384875313, "lat": 45.4345145, "lon": 12.3463572, "tags": {"addr:city": "Venezia", "addr:housenumber": "3727", "addr:postcode": "30122", "addr:street": "calle Giazzo", "amenity": "cafe", "delivery:covid19": "yes", "delivery:description:it": "Aggiunte attivit\u00e0 commerciali e dettagli relativi alla consegna a domicilio attivata in collaborazione con il Comune di Venezia per l'emergenza #COVID19", "email": "info@caffegirani.it", "facebook": "https://it-it.facebook.com/CaffeGirani/", "name": "Caff\u00e8 Girani Antica torrefazione veneziana", "opening_hours:covid19": "Mo-Su 8:30-12:30", "payment:online_payment": "yes", "phone": "041721500", "website": "https://caffegirani.it/"}}, {"type": "node", "id": 7416615860, "lat": 45.4397578, "lon": 12.3379379, "tags": {"addr:city": "Venezia", "addr:housenumber": "5555a", "addr:postcode": "30121", "addr:street": "Salizada San Canzian", "addr:unit": "1", "amenity": "cafe", "delivery": "covid19=yes", "delivery:description:it": "Attivazione servizio a domicilio di generi di prima necessit\u00e0 per COVID-19", "email": "ilbuongusto5555@gmail.com", "name": "IL BUONGUSTO", "opening_hours": "lun-Sab:10.00-13.30 , domenica chiuso", "phone": "3492257786", "website": "il-buongusto.business.site"}}]}